{
  "type": "FeatureCollection",
  "features": [
    {"type": "Feature", "properties": {"navn": "Upper East Side", "type": "område", "notat": "Skisse: 59th–96th St, Fifth Ave–East River"}, "geometry": {"type": "Polygon", "coordinates": [[[-73.97312, 40.7643], [-73.95577, 40.78791], [-73.94413, 40.78293], [-73.943, 40.7757], [-73.9512, 40.7655], [-73.95973, 40.75867], [-73.97312, 40.7643]]]}},
    {"type": "Feature", "properties": {"navn": "Upper East Side", "type": "gate", "gate": "Madison Avenue"}, "geometry": {"type": "LineString", "coordinates": [[-73.97142, 40.7636], [-73.95695, 40.78342]]}},
    {"type": "Feature", "properties": {"navn": "East Village", "type": "område", "notat": "Skisse: Houston–14th St, Bowery/Third Ave–East River (inkl. Alphabet City)"}, "geometry": {"type": "Polygon", "coordinates": [[[-73.99271, 40.72409], [-73.99085, 40.72837], [-73.9872, 40.73329], [-73.9729, 40.7282], [-73.97871, 40.72001], [-73.99271, 40.72409]]]}},
    {"type": "Feature", "properties": {"navn": "East Village", "type": "område", "notat": "Kjernen: Third Ave–Avenue A, 6th–14th St"}, "geometry": {"type": "Polygon", "coordinates": [[[-73.99085, 40.72837], [-73.9872, 40.73329], [-73.98036, 40.73041], [-73.98395, 40.72548], [-73.99085, 40.72837]]]}},
    {"type": "Feature", "properties": {"navn": "Lower East Side", "type": "område", "notat": "Skisse: Houston–Canal St, Bowery–Pitt St"}, "geometry": {"type": "Polygon", "coordinates": [[[-73.99271, 40.72409], [-73.98128, 40.72079], [-73.98436, 40.71518], [-73.99026, 40.71442], [-73.99612, 40.7163], [-73.99271, 40.72409]]]}},
    {"type": "Feature", "properties": {"navn": "Lower East Side", "type": "gate", "gate": "Orchard Street"}, "geometry": {"type": "LineString", "coordinates": [[-73.98786, 40.72277], [-73.9919, 40.71491]]}},
    {"type": "Feature", "properties": {"navn": "Nolita", "type": "område", "notat": "Skisse: Houston–Broome St, Lafayette St–Bowery"}, "geometry": {"type": "Polygon", "coordinates": [[[-73.99527, 40.72516], [-73.99271, 40.72409], [-73.99436, 40.71942], [-73.99822, 40.72108], [-73.99527, 40.72516]]]}},
    {"type": "Feature", "properties": {"navn": "Nolita", "type": "gate", "gate": "Elizabeth Street"}, "geometry": {"type": "LineString", "coordinates": [[-73.9935, 40.72437], [-73.9957, 40.7188]]}},
    {"type": "Feature", "properties": {"navn": "Nolita", "type": "gate", "gate": "Mott Street"}, "geometry": {"type": "LineString", "coordinates": [[-73.99422, 40.72463], [-73.99647, 40.71908]]}},
    {"type": "Feature", "properties": {"navn": "Nolita", "type": "gate", "gate": "Mulberry Street"}, "geometry": {"type": "LineString", "coordinates": [[-73.99495, 40.72489], [-73.99731, 40.71936]]}},
    {"type": "Feature", "properties": {"navn": "SoHo", "type": "område", "notat": "Skisse: Houston–Canal St, Sixth Ave–Lafayette St"}, "geometry": {"type": "Polygon", "coordinates": [[[-74.00284, 40.72836], [-73.99527, 40.72516], [-74.00054, 40.71844], [-74.00537, 40.72196], [-74.00284, 40.72836]]]}},
    {"type": "Feature", "properties": {"navn": "SoHo", "type": "gate", "gate": "Prince Street"}, "geometry": {"type": "LineString", "coordinates": [[-74.00159, 40.72613], [-73.9978, 40.72425]]}},
    {"type": "Feature", "properties": {"navn": "SoHo", "type": "gate", "gate": "Spring Street"}, "geometry": {"type": "LineString", "coordinates": [[-74.00262, 40.72489], [-73.99882, 40.72304]]}},
    {"type": "Feature", "properties": {"navn": "SoHo", "type": "gate", "gate": "Broome Street"}, "geometry": {"type": "LineString", "coordinates": [[-74.00364, 40.72369], [-73.99987, 40.7218]]}},
    {"type": "Feature", "properties": {"navn": "West Village", "type": "område", "notat": "Skisse: Houston–14th St, Hudson River–Sixth Ave/Greenwich Ave (Meatpacking unntatt)"}, "geometry": {"type": "Polygon", "coordinates": [[[-74.01057, 40.72913], [-74.00284, 40.72836], [-73.99955, 40.73366], [-74.00252, 40.73976], [-74.00541, 40.74097], [-74.00541, 40.73941], [-74.0098, 40.7393], [-74.01057, 40.72913]]]}},
    {"type": "Feature", "properties": {"navn": "West Village", "type": "gate", "gate": "Bleecker Street"}, "geometry": {"type": "LineString", "coordinates": [[-74.00359, 40.73226], [-74.00437, 40.73338], [-74.00513, 40.73597], [-74.00532, 40.73662], [-74.00553, 40.73689], [-74.0057, 40.7372]]}},
    {"type": "Feature", "properties": {"navn": "West Village", "type": "gate", "gate": "West 4th Street"}, "geometry": {"type": "LineString", "coordinates": [[-74.00282, 40.73363], [-74.00298, 40.73426], [-74.00387, 40.73756]]}},
    {"type": "Feature", "properties": {"navn": "West Village", "type": "gate", "gate": "Hudson Street"}, "geometry": {"type": "LineString", "coordinates": [[-74.00639, 40.73307], [-74.00553, 40.73689]]}},
    {"type": "Feature", "properties": {"navn": "Meatpacking District", "type": "område", "notat": "Skisse: Gansevoort–14th St, Hudson River–Hudson St/Ninth Ave"}, "geometry": {"type": "Polygon", "coordinates": [[[-74.00541, 40.73941], [-74.00541, 40.74097], [-74.0091, 40.7429], [-74.0098, 40.7393], [-74.00541, 40.73941]]]}},
    {"type": "Feature", "properties": {"navn": "Williamsburg", "type": "område", "notat": "Skisse: Northside og Southside – N 12th St–Broadway, East River–Union Ave"}, "geometry": {"type": "Polygon", "coordinates": [[[-73.95875, 40.72309], [-73.95257, 40.71923], [-73.95021, 40.70544], [-73.9672, 40.7108], [-73.95875, 40.72309]]]}},
    {"type": "Feature", "properties": {"navn": "Williamsburg", "type": "gate", "gate": "Bedford Avenue"}, "geometry": {"type": "LineString", "coordinates": [[-73.95891, 40.71673], [-73.95476, 40.7206]]}},
    {"type": "Feature", "properties": {"navn": "Carroll Gardens og Cobble Hill", "type": "område", "notat": "Skisse: Atlantic Ave–Hamilton Ave, BQE–Hoyt St. Grensen Cobble Hill/Carroll Gardens går ved Degraw St"}, "geometry": {"type": "Polygon", "coordinates": [[[-73.99779, 40.69117], [-73.987, 40.68779], [-73.993, 40.679], [-73.9963, 40.674], [-74.00002, 40.67384], [-74.00377, 40.67881], [-74.00065, 40.68526], [-73.99779, 40.69117]]]}},
    {"type": "Feature", "properties": {"navn": "Carroll Gardens og Cobble Hill", "type": "gate", "gate": "Smith Street"}, "geometry": {"type": "LineString", "coordinates": [[-73.98919, 40.68863], [-73.99516, 40.67984]]}},
    {"type": "Feature", "properties": {"navn": "Carroll Gardens og Cobble Hill", "type": "gate", "gate": "Court Street"}, "geometry": {"type": "LineString", "coordinates": [[-73.99238, 40.6897], [-73.99966, 40.67456]]}},
    {"type": "Feature", "properties": {"navn": "Park Slope", "type": "område", "notat": "Skisse: Flatbush Ave–15th St, Fourth Ave–Prospect Park West"}, "geometry": {"type": "Polygon", "coordinates": [[[-73.97794, 40.68484], [-73.97045, 40.67266], [-73.9793, 40.6607], [-73.99167, 40.66672], [-73.97794, 40.68484]]]}},
    {"type": "Feature", "properties": {"navn": "Brooklyn Heights", "type": "område", "notat": "Skisse: Old Fulton St–Atlantic Ave, East River–Cadman Plaza/Court St"}, "geometry": {"type": "Polygon", "coordinates": [[[-73.99478, 40.70289], [-73.99104, 40.70076], [-73.9905, 40.6926], [-73.99238, 40.6897], [-73.99996, 40.69178], [-73.99478, 40.70289]]]}},
    {"type": "Feature", "properties": {"navn": "Brooklyn Heights", "type": "gate", "gate": "Brooklyn Heights Promenade"}, "geometry": {"type": "LineString", "coordinates": [[-73.99824, 40.69523], [-73.99775, 40.69642], [-73.997, 40.6981], [-73.9964, 40.6996]]}},
    {"type": "Feature", "properties": {"navn": "Central Park", "type": "gate", "gate": "The Mall"}, "geometry": {"type": "LineString", "coordinates": [[-73.97275, 40.77075], [-73.9706, 40.77365]]}},
    {"type": "Feature", "properties": {"navn": "Central Park", "type": "område", "notat": "Bethesda Terrace og Bethesda Fountain"}, "geometry": {"type": "Polygon", "coordinates": [[[-73.9715, 40.7736], [-73.9708, 40.77335], [-73.9702, 40.7744], [-73.97095, 40.7747], [-73.9715, 40.7736]]]}},
    {"type": "Feature", "properties": {"navn": "High Line", "type": "rute"}, "geometry": {"type": "LineString", "coordinates": [[-74.00806, 40.7394], [-74.00805, 40.7421], [-74.0069, 40.7441], [-74.00608, 40.74626], [-74.00468, 40.74818], [-74.00328, 40.7501], [-74.00141, 40.75266], [-74.004, 40.7537], [-74.0058, 40.7544], [-74.0061, 40.7553], [-74.0047, 40.7572]]}},
    {"type": "Feature", "properties": {"navn": "Langs Hudson River", "type": "rute"}, "geometry": {"type": "LineString", "coordinates": [[-74.0096, 40.74155], [-74.0103, 40.739], [-74.0115, 40.7336], [-74.0117, 40.7292], [-74.013, 40.7203], [-74.015, 40.7172], [-74.0165, 40.7163], [-74.0168, 40.7128], [-74.0185, 40.7095], [-74.0185, 40.705], [-74.0177, 40.7041], [-74.0154, 40.7029]]}}
  ]
}
