{
  "type": "FeatureCollection",
  "features": [
    {
      "type": "Feature",
      "properties": {
        "navn": "Kyststien fra Coco Beach til Villefranche-sur-Mer",
        "type": "rute"
      },
      "geometry": {
        "type": "LineString",
        "coordinates": [
          [7.29387, 43.6906],
          [7.29398, 43.69019],
          [7.29386, 43.69014],
          [7.29448, 43.68974],
          [7.29442, 43.68907],
          [7.29458, 43.68902],
          [7.29459, 43.68882],
          [7.29446, 43.68836],
          [7.29436, 43.68838],
          [7.29399, 43.68764],
          [7.29387, 43.68757],
          [7.29395, 43.68744],
          [7.29383, 43.68707],
          [7.2939, 43.68676],
          [7.2941, 43.68651],
          [7.29439, 43.68638],
          [7.29463, 43.68633],
          [7.29482, 43.68643],
          [7.2951, 43.68626],
          [7.2954, 43.68592],
          [7.29563, 43.68599],
          [7.29596, 43.68588],
          [7.29644, 43.68635],
          [7.29723, 43.68651],
          [7.29751, 43.68667],
          [7.29766, 43.68665],
          [7.29771, 43.68645],
          [7.29789, 43.68636],
          [7.29805, 43.68634],
          [7.29813, 43.68644],
          [7.29838, 43.68645],
          [7.29846, 43.68638],
          [7.29891, 43.68645],
          [7.29916, 43.68639],
          [7.29925, 43.68645],
          [7.29942, 43.68633],
          [7.29925, 43.68645],
          [7.29916, 43.68639],
          [7.29891, 43.68645],
          [7.29846, 43.68638],
          [7.29838, 43.68645],
          [7.29813, 43.68644],
          [7.29805, 43.68634],
          [7.29789, 43.68636],
          [7.29771, 43.68645],
          [7.29762, 43.68666],
          [7.29751, 43.68667],
          [7.29723, 43.68651],
          [7.29683, 43.68645],
          [7.29645, 43.68688],
          [7.29687, 43.68703],
          [7.29673, 43.68739],
          [7.29682, 43.6876],
          [7.29603, 43.68781],
          [7.29613, 43.68803],
          [7.29902, 43.6874],
          [7.29976, 43.68717],
          [7.30235, 43.68662],
          [7.30334, 43.68622],
          [7.30394, 43.68617],
          [7.30395, 43.68607],
          [7.30412, 43.68594],
          [7.30441, 43.68597],
          [7.30413, 43.68566],
          [7.30429, 43.68565],
          [7.3041, 43.68553],
          [7.30417, 43.68541],
          [7.3048, 43.68568],
          [7.30558, 43.68582],
          [7.30599, 43.68627],
          [7.3063, 43.68652],
          [7.30644, 43.68656],
          [7.30672, 43.68683],
          [7.3068, 43.68719],
          [7.30729, 43.68746],
          [7.3076, 43.68809],
          [7.30756, 43.68837],
          [7.3079, 43.68851],
          [7.30806, 43.68868],
          [7.3079, 43.6892],
          [7.30814, 43.68975],
          [7.30826, 43.68979],
          [7.3083, 43.69001],
          [7.30819, 43.69005],
          [7.30815, 43.6906],
          [7.30803, 43.69064],
          [7.30796, 43.69076],
          [7.30803, 43.69095],
          [7.30854, 43.69121],
          [7.30859, 43.69142],
          [7.30873, 43.69155],
          [7.30885, 43.69205],
          [7.30878, 43.69255],
          [7.30883, 43.69276],
          [7.30826, 43.69294],
          [7.30707, 43.69536],
          [7.30717, 43.69545],
          [7.30729, 43.69686],
          [7.30765, 43.6974],
          [7.30752, 43.69742],
          [7.30675, 43.69767],
          [7.30685, 43.69843],
          [7.30698, 43.69857],
          [7.30862, 43.69966],
          [7.31104, 43.70078],
          [7.31139, 43.70087],
          [7.31149, 43.7011],
          [7.31194, 43.70162],
          [7.31134, 43.70265],
          [7.31187, 43.70349],
          [7.31174, 43.70356],
          [7.31182, 43.70369],
          [7.31189, 43.70368]
        ]
      }
    },
    {
      "type": "Feature",
      "properties": {
        "navn": "Rundt Saint-Jean-Cap-Ferrat",
        "type": "rute"
      },
      "geometry": {
        "type": "LineString",
        "coordinates": [
          [7.33394, 43.68884],
          [7.33377, 43.68869],
          [7.33342, 43.68858],
          [7.33337, 43.68796],
          [7.3335, 43.68779],
          [7.3338, 43.68676],
          [7.33384, 43.68627],
          [7.3344, 43.68463],
          [7.33454, 43.68305],
          [7.3348, 43.68231],
          [7.33528, 43.67919],
          [7.33511, 43.67822],
          [7.33488, 43.67788],
          [7.33383, 43.6768],
          [7.33371, 43.67648],
          [7.33375, 43.67606],
          [7.33339, 43.67563],
          [7.33299, 43.67559],
          [7.33252, 43.67528],
          [7.33176, 43.6752],
          [7.33131, 43.67501],
          [7.33078, 43.67508],
          [7.3303, 43.6754],
          [7.33001, 43.67542],
          [7.32965, 43.67525],
          [7.32924, 43.67531],
          [7.32851, 43.67501],
          [7.32808, 43.67495],
          [7.32789, 43.67478],
          [7.32771, 43.67487],
          [7.32719, 43.67462],
          [7.32689, 43.67472],
          [7.32682, 43.67484],
          [7.32689, 43.67495],
          [7.32674, 43.67507],
          [7.32661, 43.67552],
          [7.32621, 43.67594],
          [7.32586, 43.67617],
          [7.32559, 43.67671],
          [7.32516, 43.67677],
          [7.32494, 43.67696],
          [7.32494, 43.67728],
          [7.32481, 43.67752],
          [7.32509, 43.6783],
          [7.32499, 43.67843],
          [7.32472, 43.67849],
          [7.32458, 43.67861],
          [7.32444, 43.67905],
          [7.32448, 43.67931],
          [7.32468, 43.67961],
          [7.32442, 43.67978],
          [7.32462, 43.67982],
          [7.32482, 43.68025],
          [7.32442, 43.6806],
          [7.32465, 43.68097],
          [7.32463, 43.68116],
          [7.32488, 43.6812],
          [7.3253, 43.6815],
          [7.32528, 43.68192],
          [7.32472, 43.68256],
          [7.32461, 43.6829],
          [7.32453, 43.6831],
          [7.32469, 43.68338],
          [7.32421, 43.6836],
          [7.3239, 43.68365],
          [7.32393, 43.68401],
          [7.3236, 43.6843],
          [7.32338, 43.68436],
          [7.32327, 43.68415],
          [7.32311, 43.68432],
          [7.32319, 43.68463],
          [7.32355, 43.6847],
          [7.32375, 43.68493],
          [7.32375, 43.68515],
          [7.32364, 43.68528],
          [7.32339, 43.68539],
          [7.32322, 43.68662],
          [7.32309, 43.68687],
          [7.32286, 43.68704],
          [7.32287, 43.68729],
          [7.32277, 43.68739],
          [7.32221, 43.68739],
          [7.32177, 43.68725],
          [7.32156, 43.68734],
          [7.32133, 43.68804],
          [7.32099, 43.68824],
          [7.32093, 43.6886],
          [7.32057, 43.68925],
          [7.32036, 43.69012],
          [7.3204, 43.69074],
          [7.32059, 43.69117],
          [7.32098, 43.69165],
          [7.32118, 43.6917],
          [7.32167, 43.69204],
          [7.32208, 43.692],
          [7.32283, 43.69221],
          [7.32357, 43.6927],
          [7.32353, 43.69282],
          [7.32365, 43.69295],
          [7.32497, 43.69333],
          [7.32515, 43.69366],
          [7.32571, 43.6937],
          [7.32573, 43.69359],
          [7.32694, 43.69302],
          [7.32785, 43.69304],
          [7.32817, 43.69298],
          [7.32829, 43.69286],
          [7.32828, 43.69256],
          [7.32849, 43.69259],
          [7.32917, 43.69198],
          [7.33037, 43.69189],
          [7.33083, 43.69205],
          [7.33247, 43.69205],
          [7.33267, 43.69199],
          [7.33313, 43.69086],
          [7.33312, 43.69028],
          [7.33328, 43.68963],
          [7.33371, 43.68928],
          [7.33394, 43.68884]
        ]
      }
    }
  ]
}
